[{"OBJECT_NAME":"ONEWEB-0559","OBJECT_ID":"2023-043Q","EPOCH":"2026-06-10T00:20:14.868672","MEAN_MOTION":13.21827041,"ECCENTRICITY":0.0001834,"INCLINATION":87.9258,"RA_OF_ASC_NODE":245.4004,"ARG_OF_PERICENTER":104.2909,"MEAN_ANOMALY":255.8429,"EPHEMERIS_TYPE":0,"CLASSIFICATION_TYPE":"U","NORAD_CAT_ID":56060,"ELEMENT_SET_NO":999,"REV_AT_EPOCH":15730,"BSTAR":0.00011566,"MEAN_MOTION_DOT":6.1e-07,"MEAN_MOTION_DDOT":0.0},{"OBJECT_NAME":"ONEWEB-0566","OBJECT_ID":"2023-043R","EPOCH":"2026-06-09T22:21:34.826976","MEAN_MOTION":13.21827143,"ECCENTRICITY":0.0001789,"INCLINATION":87.9255,"RA_OF_ASC_NODE":245.4149,"ARG_OF_PERICENTER":107.3028,"MEAN_ANOMALY":252.8301,"EPHEMERIS_TYPE":0,"CLASSIFICATION_TYPE":"U","NORAD_CAT_ID":56061,"ELEMENT_SET_NO":999,"REV_AT_EPOCH":15727,"BSTAR":-0.00013787,"MEAN_MOTION_DOT":-4.4e-07,"MEAN_MOTION_DDOT":0.0},{"OBJECT_NAME":"ONEWEB-0568","OBJECT_ID":"2023-043S","EPOCH":"2026-06-10T04:06:32.995872","MEAN_MOTION":13.16593733,"ECCENTRICITY":0.0002339,"INCLINATION":87.9098,"RA_OF_ASC_NODE":230.1644,"ARG_OF_PERICENTER":98.8329,"MEAN_ANOMALY":261.3067,"EPHEMERIS_TYPE":0,"CLASSIFICATION_TYPE":"U","NORAD_CAT_ID":56062,"ELEMENT_SET_NO":999,"REV_AT_EPOCH":15805,"BSTAR":0.00020124000000000002,"MEAN_MOTION_DOT":9e-07,"MEAN_MOTION_DDOT":0.0},{"OBJECT_NAME":"ONEWEB-0574","OBJECT_ID":"2023-043T","EPOCH":"2026-06-09T22:11:52.332864","MEAN_MOTION":13.21827819,"ECCENTRICITY":0.0002133,"INCLINATION":87.9264,"RA_OF_ASC_NODE":245.4185,"ARG_OF_PERICENTER":94.6611,"MEAN_ANOMALY":265.4767,"EPHEMERIS_TYPE":0,"CLASSIFICATION_TYPE":"U","NORAD_CAT_ID":56063,"ELEMENT_SET_NO":999,"REV_AT_EPOCH":15731,"BSTAR":-0.00030474,"MEAN_MOTION_DOT":-1.13e-06,"MEAN_MOTION_DDOT":0.0},{"OBJECT_NAME":"ONEWEB-0575","OBJECT_ID":"2023-043U","EPOCH":"2026-06-10T03:57:25.890336","MEAN_MOTION":13.16593144,"ECCENTRICITY":0.0002341,"INCLINATION":87.9098,"RA_OF_ASC_NODE":230.1621,"ARG_OF_PERICENTER":90.6587,"MEAN_ANOMALY":269.4812,"EPHEMERIS_TYPE":0,"CLASSIFICATION_TYPE":"U","NORAD_CAT_ID":56064,"ELEMENT_SET_NO":999,"REV_AT_EPOCH":15804,"BSTAR":2.0036000000000003e-05,"MEAN_MOTION_DOT":2.1e-07,"MEAN_MOTION_DDOT":0.0},{"OBJECT_NAME":"ONEWEB-0576","OBJECT_ID":"2023-043V","EPOCH":"2026-06-10T03:30:03.611232","MEAN_MOTION":13.16593649,"ECCENTRICITY":0.0002208,"INCLINATION":87.9103,"RA_OF_ASC_NODE":230.1733,"ARG_OF_PERICENTER":93.8211,"MEAN_ANOMALY":266.3173,"EPHEMERIS_TYPE":0,"CLASSIFICATION_TYPE":"U","NORAD_CAT_ID":56065,"ELEMENT_SET_NO":999,"REV_AT_EPOCH":15803,"BSTAR":-5.163e-05,"MEAN_MOTION_DOT":-7e-08,"MEAN_MOTION_DDOT":0.0},{"OBJECT_NAME":"ONEWEB-0577","OBJECT_ID":"2023-043W","EPOCH":"2026-06-10T03:39:11.201472","MEAN_MOTION":13.16593253,"ECCENTRICITY":0.0002442,"INCLINATION":87.91,"RA_OF_ASC_NODE":230.1697,"ARG_OF_PERICENTER":80.9489,"MEAN_ANOMALY":279.1918,"EPHEMERIS_TYPE":0,"CLASSIFICATION_TYPE":"U","NORAD_CAT_ID":56066,"ELEMENT_SET_NO":999,"REV_AT_EPOCH":15806,"BSTAR":-3.1171e-05,"MEAN_MOTION_DOT":1e-08,"MEAN_MOTION_DDOT":0.0},{"OBJECT_NAME":"ONEWEB-0578","OBJECT_ID":"2023-043X","EPOCH":"2026-06-09T23:41:29.947488","MEAN_MOTION":13.21824315,"ECCENTRICITY":0.0002357,"INCLINATION":87.9258,"RA_OF_ASC_NODE":245.4048,"ARG_OF_PERICENTER":100.8262,"MEAN_ANOMALY":259.3137,"EPHEMERIS_TYPE":0,"CLASSIFICATION_TYPE":"U","NORAD_CAT_ID":56067,"ELEMENT_SET_NO":999,"REV_AT_EPOCH":15728,"BSTAR":-3.8626e-05,"MEAN_MOTION_DOT":-3e-08,"MEAN_MOTION_DDOT":0.0},{"OBJECT_NAME":"ONEWEB-0579","OBJECT_ID":"2023-043Y","EPOCH":"2026-06-09T23:29:24.972864","MEAN_MOTION":13.21826074,"ECCENTRICITY":0.0001739,"INCLINATION":87.9263,"RA_OF_ASC_NODE":245.403,"ARG_OF_PERICENTER":99.3286,"MEAN_ANOMALY":260.8045,"EPHEMERIS_TYPE":0,"CLASSIFICATION_TYPE":"U","NORAD_CAT_ID":56068,"ELEMENT_SET_NO":999,"REV_AT_EPOCH":15729,"BSTAR":-6.931000000000001e-06,"MEAN_MOTION_DOT":1e-07,"MEAN_MOTION_DDOT":0.0},{"OBJECT_NAME":"ONEWEB-0581","OBJECT_ID":"2023-043Z","EPOCH":"2026-06-10T03:48:16.794144","MEAN_MOTION":13.16596094,"ECCENTRICITY":0.0002253,"INCLINATION":87.9097,"RA_OF_ASC_NODE":230.1798,"ARG_OF_PERICENTER":84.1787,"MEAN_ANOMALY":275.9601,"EPHEMERIS_TYPE":0,"CLASSIFICATION_TYPE":"U","NORAD_CAT_ID":56069,"ELEMENT_SET_NO":999,"REV_AT_EPOCH":15803,"BSTAR":3.4606e-05,"MEAN_MOTION_DOT":2.6e-07,"MEAN_MOTION_DDOT":0.0},{"OBJECT_NAME":"ONEWEB-0609","OBJECT_ID":"2023-043AA","EPOCH":"2026-06-10T00:46:04.176192","MEAN_MOTION":13.1554857,"ECCENTRICITY":0.0001987,"INCLINATION":87.8998,"RA_OF_ASC_NODE":260.6373,"ARG_OF_PERICENTER":103.342,"MEAN_ANOMALY":256.7932,"EPHEMERIS_TYPE":0,"CLASSIFICATION_TYPE":"U","NORAD_CAT_ID":56070,"ELEMENT_SET_NO":999,"REV_AT_EPOCH":15549,"BSTAR":0.00034412,"MEAN_MOTION_DOT":1.42e-06,"MEAN_MOTION_DDOT":0.0},{"OBJECT_NAME":"ONEWEB-0613","OBJECT_ID":"2023-043AB","EPOCH":"2026-06-10T00:42:38.378304","MEAN_MOTION":13.15549628,"ECCENTRICITY":0.0001709,"INCLINATION":87.8999,"RA_OF_ASC_NODE":260.65,"ARG_OF_PERICENTER":104.7009,"MEAN_ANOMALY":255.4311,"EPHEMERIS_TYPE":0,"CLASSIFICATION_TYPE":"U","NORAD_CAT_ID":56071,"ELEMENT_SET_NO":999,"REV_AT_EPOCH":15549,"BSTAR":0.00028522,"MEAN_MOTION_DOT":1.2e-06,"MEAN_MOTION_DDOT":0.0},{"OBJECT_NAME":"ONEWEB-0630","OBJECT_ID":"2023-043AC","EPOCH":"2026-06-10T00:35:46.534560","MEAN_MOTION":13.15550273,"ECCENTRICITY":0.0001713,"INCLINATION":87.9002,"RA_OF_ASC_NODE":260.6222,"ARG_OF_PERICENTER":103.531,"MEAN_ANOMALY":256.6012,"EPHEMERIS_TYPE":0,"CLASSIFICATION_TYPE":"U","NORAD_CAT_ID":56072,"ELEMENT_SET_NO":999,"REV_AT_EPOCH":15548,"BSTAR":0.00019446,"MEAN_MOTION_DOT":8.6e-07,"MEAN_MOTION_DDOT":0.0},{"OBJECT_NAME":"ONEWEB-0632","OBJECT_ID":"2023-043AD","EPOCH":"2026-06-10T00:28:57.532512","MEAN_MOTION":13.15554376,"ECCENTRICITY":0.0001901,"INCLINATION":87.8999,"RA_OF_ASC_NODE":260.6404,"ARG_OF_PERICENTER":96.4402,"MEAN_ANOMALY":263.6945,"EPHEMERIS_TYPE":0,"CLASSIFICATION_TYPE":"U","NORAD_CAT_ID":56073,"ELEMENT_SET_NO":999,"REV_AT_EPOCH":15548,"BSTAR":-0.0036305,"MEAN_MOTION_DOT":-1.354e-05,"MEAN_MOTION_DDOT":0.0},{"OBJECT_NAME":"ONEWEB-0633","OBJECT_ID":"2023-043AE","EPOCH":"2026-06-10T00:19:48.366336","MEAN_MOTION":13.15548333,"ECCENTRICITY":0.0001692,"INCLINATION":87.9007,"RA_OF_ASC_NODE":260.6173,"ARG_OF_PERICENTER":111.9335,"MEAN_ANOMALY":248.1975,"EPHEMERIS_TYPE":0,"CLASSIFICATION_TYPE":"U","NORAD_CAT_ID":56074,"ELEMENT_SET_NO":999,"REV_AT_EPOCH":15546,"BSTAR":-0.0001242,"MEAN_MOTION_DOT":-3.4e-07,"MEAN_MOTION_DDOT":0.0},{"OBJECT_NAME":"ONEWEB-0634","OBJECT_ID":"2023-043AF","EPOCH":"2026-06-09T23:59:17.857536","MEAN_MOTION":13.15547986,"ECCENTRICITY":0.0002235,"INCLINATION":87.9,"RA_OF_ASC_NODE":260.6613,"ARG_OF_PERICENTER":106.5182,"MEAN_ANOMALY":253.6194,"EPHEMERIS_TYPE":0,"CLASSIFICATION_TYPE":"U","NORAD_CAT_ID":56075,"ELEMENT_SET_NO":999,"REV_AT_EPOCH":15545,"BSTAR":-0.00031099,"MEAN_MOTION_DOT":-1.04e-06,"MEAN_MOTION_DDOT":0.0}]