ONEWEB-0559             
1 56060U 23043Q   26161.01406098  .00000061  00000+0  11566-3 0  9991
2 56060  87.9258 245.4004 0001834 104.2909 255.8429 13.21827041157308
ONEWEB-0566             
1 56061U 23043R   26160.93165309 -.00000044  00000+0 -13787-3 0  9999
2 56061  87.9255 245.4149 0001789 107.3028 252.8301 13.21827143157276
ONEWEB-0568             
1 56062U 23043S   26161.17121523  .00000090  00000+0  20124-3 0  9999
2 56062  87.9098 230.1644 0002339  98.8329 261.3067 13.16593733158053
ONEWEB-0574             
1 56063U 23043T   26160.92491126 -.00000113  00000+0 -30474-3 0  9998
2 56063  87.9264 245.4185 0002133  94.6611 265.4767 13.21827819157319
ONEWEB-0575             
1 56064U 23043U   26161.16488299  .00000021  00000+0  20036-4 0  9993
2 56064  87.9098 230.1621 0002341  90.6587 269.4812 13.16593144158041
ONEWEB-0576             
1 56065U 23043V   26161.14587513 -.00000007  00000+0 -51630-4 0  9991
2 56065  87.9103 230.1733 0002208  93.8211 266.3173 13.16593649158039
ONEWEB-0577             
1 56066U 23043W   26161.15221298  .00000001  00000+0 -31171-4 0  9999
2 56066  87.9100 230.1697 0002442  80.9489 279.1918 13.16593253158063
ONEWEB-0578             
1 56067U 23043X   26160.98715217 -.00000003  00000+0 -38626-4 0  9994
2 56067  87.9258 245.4048 0002357 100.8262 259.3137 13.21824315157281
ONEWEB-0579             
1 56068U 23043Y   26160.97876126  .00000010  00000+0 -69310-5 0  9993
2 56068  87.9263 245.4030 0001739  99.3286 260.8045 13.21826074157290
ONEWEB-0581             
1 56069U 23043Z   26161.15852771  .00000026  00000+0  34606-4 0  9990
2 56069  87.9097 230.1798 0002253  84.1787 275.9601 13.16596094158036
ONEWEB-0609             
1 56070U 23043AA  26161.03199278  .00000142  00000+0  34412-3 0  9998
2 56070  87.8998 260.6373 0001987 103.3420 256.7932 13.15548570155491
ONEWEB-0613             
1 56071U 23043AB  26161.02961086  .00000120  00000+0  28522-3 0  9993
2 56071  87.8999 260.6500 0001709 104.7009 255.4311 13.15549628155497
ONEWEB-0630             
1 56072U 23043AC  26161.02484415  .00000086  00000+0  19446-3 0  9996
2 56072  87.9002 260.6222 0001713 103.5310 256.6012 13.15550273155480
ONEWEB-0632             
1 56073U 23043AD  26161.02011033 -.00001354  00000+0 -36305-2 0  9992
2 56073  87.8999 260.6404 0001901  96.4402 263.6945 13.15554376155489
ONEWEB-0633             
1 56074U 23043AE  26161.01375424 -.00000034  00000+0 -12420-3 0  9996
2 56074  87.9007 260.6173 0001692 111.9335 248.1975 13.15548333155464
ONEWEB-0634             
1 56075U 23043AF  26160.99951224 -.00000104  00000+0 -31099-3 0  9992
2 56075  87.9000 260.6613 0002235 106.5182 253.6194 13.15547986155457
